2022-046B               
1 52389U 22046B   22121.19316314 -.00000063  00000+0  00000+0 0  9995
2 52389  97.5412 209.2902 0011507 287.0542 135.0890 15.09479821   151
2022-046C               
1 52390U 22046C   22121.13261742 -.00000064  00000+0  00000+0 0  9996
2 52390  97.5409 209.2216 0012694 291.3795 162.1381 15.09522559   145
2022-046D               
1 52391U 22046D   22121.26468939 -.00000064  00000+0  00000+0 0  9998
2 52391  97.5476 209.3621 0013213 291.0403 160.4099 15.09699604   167
2022-046E               
1 52392U 22046E   22120.67085843 -.00000064  00000+0  00000+0 0  9992
2 52392  97.5358 208.7758 0013103 291.4108 174.8715 15.09797580    71
